 HQ AFSPC Sgp4Prop DLL - Version: v8.0 - Build: Nov 05 2020 - Platform: Windows 32-bit                                         


EPHEMERIS GENERATED BY SGP4 USING THE WGS-72 EARTH MODEL
COORDINATE FRAME=TRUE EQUATOR AND MEAN EQUINOX OF EPOCH
USING THE FK5 MEAN OF J2000 TIME AND REFERENCE FRAME

INPUT FILE = input\rel14.inp
Start Time =         0.0000 min from epoch
Stop Time  =     43200.0000 min from epoch
Step size  =      2700.0000 min


     TSINCE (MIN)     N (REVS/DAY)          ECC (-)        INC (DEG)       NODE (DEG)      OMEGA (DEG)         MA (DEG)


 1 90021U RELEAS14 00051.47568104 +.00000184  00000 0  00000 0 0 0814                                                                                                                                                                                                                                                                                                                                                                                                                                                           
 2 90021   0.0222 182.4923 0000720  45.6036 131.8822  1.0027132801199                                                                                                                                                                                                                                                                                                                                                                                                                                                           

         0.0000000        1.0026760        0.0000720        0.0222000      182.4923000       45.6036000      131.8822000
      2700.0000000        1.0026851        0.0000720        0.0225934      182.4671480       45.6639257       88.6942166
      5400.0000000        1.0026942        0.0000720        0.0229869      182.4419960       45.7242514       45.5123689
      8100.0000000        1.0027033        0.0000720        0.0233803      182.4168440       45.7845771        2.3366567
     10800.0000000        1.0027124        0.0000720        0.0237737      182.3916920       45.8449028      319.1670795
     13500.0000000        1.0027215        0.0000720        0.0241672      182.3665399       45.9052285      276.0036367
     16200.0000000        1.0027306        0.0000720        0.0245606      182.3413879       45.9655542      232.8463272
     18900.0000000        1.0027396        0.0000720        0.0249541      182.3162359       46.0258799      189.6951499
     21600.0000000        1.0027487        0.0000720        0.0253475      182.2910839       46.0862056      146.5501034
     24300.0000000        1.0027578        0.0000720        0.0257409      182.2659319       46.1465313      103.4111858
     27000.0000000        1.0027669        0.0000721        0.0261344      182.2407799       46.2068570       60.2783953
     29700.0000000        1.0027759        0.0000721        0.0265278      182.2156279       46.2671827       17.1517295
     32400.0000000        1.0027850        0.0000721        0.0269212      182.1904759       46.3275084      334.0311859
     35100.0000000        1.0027941        0.0000721        0.0273147      182.1653239       46.3878341      290.9167617
     37800.0000000        1.0028031        0.0000721        0.0277081      182.1401718       46.4481598      247.8084537
     40500.0000000        1.0028122        0.0000721        0.0281015      182.1150198       46.5084855      204.7062584
     43200.0000000        1.0028212        0.0000721        0.0284950      182.0898678       46.5688112      161.6101721


 1 90022U RELEAS14 00051.59174492 +.00000136  00000 0  00000 0 0 0733                                                                                                                                                                                                                                                                                                                                                                                                                                                           
 2 90022   4.5701  71.6069 0014162  60.8451 299.2453  0.9654587100306                                                                                                                                                                                                                                                                                                                                                                                                                                                           

         0.0000000        0.9654249        0.0014162        4.5701000       71.6069000       60.8451000      299.2453000
      2700.0000000        0.9654302        0.0014161        4.5739244       71.5970422       60.8879499      230.9076891
      5400.0000000        0.9654381        0.0014160        4.5777488       71.5871844       60.9307997      162.5749265
      8100.0000000        0.9654423        0.0014159        4.5815732       71.5773266       60.9736496       94.2465691
     10800.0000000        0.9654405        0.0014158        4.5853976       71.5674688       61.0164994       25.9190327
     13500.0000000        0.9654346        0.0014158        4.5892220       71.5576110       61.0593493      317.5886527
     16200.0000000        0.9654289        0.0014157        4.5930464       71.5477532       61.1021991      249.2540811
     18900.0000000        0.9654268        0.0014156        4.5968708       71.5378954       61.1450490      180.9166912
     21600.0000000        0.9654299        0.0014155        4.6006952       71.5280376       61.1878988      112.5796399
     24300.0000000        0.9654368        0.0014154        4.6045196       71.5181798       61.2307487       44.2461638
     27000.0000000        0.9654431        0.0014153        4.6083440       71.5083220       61.2735986      335.9174643
     29700.0000000        0.9654438        0.0014152        4.6121685       71.4984642       61.3164484      267.5913681
     32400.0000000        0.9654376        0.0014151        4.6159929       71.4886064       61.3592983      199.2633266
     35100.0000000        0.9654289        0.0014150        4.6198173       71.4787486       61.4021481      130.9298594
     37800.0000000        0.9654247        0.0014149        4.6236417       71.4688908       61.4449980       62.5916436
     40500.0000000        0.9654280        0.0014149        4.6274661       71.4590330       61.4878478      354.2530905
     43200.0000000        0.9654357        0.0014148        4.6312905       71.4491752       61.5306977      285.9186401


 1 90023U RELEAS14 00051.45013393 +.00000064  00000 0  00000 0 0 0221                                                                                                                                                                                                                                                                                                                                                                                                                                                           
 2 90023  54.9132 182.6983 0017768 176.8444 183.1487  2.0055852401395                                                                                                                                                                                                                                                                                                                                                                                                                                                           

         0.0000000        2.0055861        0.0017768       54.9132000      182.6983000      176.8444000      183.1487000
      2700.0000000        2.0055861        0.0017767       54.9132512      182.6238033      176.8979129       96.9107891
      5400.0000000        2.0055861        0.0017766       54.9133025      182.5493067      176.9514257       10.6728782
      8100.0000000        2.0055861        0.0017766       54.9133537      182.4748100      177.0049386      284.4349673
     10800.0000000        2.0055861        0.0017765       54.9134050      182.4003133      177.0584514      198.1970564
     13500.0000000        2.0055861        0.0017764       54.9134562      182.3258167      177.1119643      111.9591455
     16200.0000000        2.0055861        0.0017763       54.9135074      182.2513200      177.1654772       25.7212346
     18900.0000000        2.0055861        0.0017763       54.9135587      182.1768233      177.2189900      299.4833237
     21600.0000000        2.0055861        0.0017762       54.9136099      182.1023267      177.2725029      213.2454128
     24300.0000000        2.0055861        0.0017761       54.9136611      182.0278300      177.3260157      127.0075020
     27000.0000000        2.0055861        0.0017760       54.9137124      181.9533333      177.3795286       40.7695911
     29700.0000000        2.0055861        0.0017759       54.9137636      181.8788367      177.4330415      314.5316802
     32400.0000000        2.0055861        0.0017759       54.9138149      181.8043400      177.4865543      228.2937693
     35100.0000000        2.0055861        0.0017758       54.9138661      181.7298433      177.5400672      142.0558584
     37800.0000000        2.0055861        0.0017757       54.9139173      181.6553467      177.5935800       55.8179475
     40500.0000000        2.0055861        0.0017756       54.9139686      181.5808500      177.6470929      329.5800366
     43200.0000000        2.0055861        0.0017756       54.9140198      181.5063533      177.7006058      243.3421257

